[{"OBJECT_NAME":"STARLINK-2685","OBJECT_ID":"2021-040AS","EPOCH":"2026-03-10T00:00:02.999808","MEAN_MOTION":15.22639637,"ECCENTRICITY":0.0001772,"INCLINATION":53.1253,"RA_OF_ASC_NODE":189.7147,"ARG_OF_PERICENTER":86.2021,"MEAN_ANOMALY":349.9142,"EPHEMERIS_TYPE":0,"CLASSIFICATION_TYPE":"U","NORAD_CAT_ID":48468,"ELEMENT_SET_NO":999,"REV_AT_EPOCH":574,"BSTAR":0.06523857,"MEAN_MOTION_DOT":0.01676642,"MEAN_MOTION_DDOT":0},{"OBJECT_NAME":"EOS-08","OBJECT_ID":"2024-147A","EPOCH":"2026-03-09T22:14:35.464704","MEAN_MOTION":15.45433116,"ECCENTRICITY":0.00043204,"INCLINATION":37.3815,"RA_OF_ASC_NODE":324.8107,"ARG_OF_PERICENTER":300.1628,"MEAN_ANOMALY":59.8707,"EPHEMERIS_TYPE":0,"CLASSIFICATION_TYPE":"U","NORAD_CAT_ID":60454,"ELEMENT_SET_NO":999,"REV_AT_EPOCH":8770,"BSTAR":0.00090257159,"MEAN_MOTION_DOT":0.00044536,"MEAN_MOTION_DDOT":0}]
